0 SL-16 DEB
1 22393U 92093CJ  19098.73224747 +.00000337 +00000-0 +22867-3 0  9996
2 22393 071.1225 215.7506 0121125 036.2157 072.7012 14.03481922339065
0 SL-16 DEB
1 22394U 92093CK  19098.85858982 -.00000119 +00000-0 -44942-4 0  9993
2 22394 071.2775 253.7731 0077386 157.5556 202.8980 14.05723022341636
0 SL-16 DEB
1 22394U 92093CK  19099.85482679 -.00000146  00000-0 -60896-4 0  9996
2 22394  71.2776 251.7418 0077352 156.0389 204.4363 14.05722792342051
0 SL-16 DEB
1 22395U 92093CL  19098.96609137 +.00000822 +00000-0 +36495-3 0  9994
2 22395 071.1516 004.6872 0087795 258.3515 196.0980 14.23885918345257
0 SL-16 DEB
1 22396U 92093CM  19098.74024111 +.00002805 +00000-0 +41387-3 0  9993
2 22396 070.6525 223.7980 0014416 279.9324 200.8444 14.76242997375808
0 SL-16 DEB
1 22397U 92093CN  19098.86833960 +.00000247 +00000-0 +13041-3 0  9991
2 22397 070.8068 027.3199 0041628 209.1830 150.6970 14.23067785355474
0 SL-16 DEB
1 22397U 92093CN  19099.21979725  .00000255  00000-0  13435-3 0  9997
2 22397  70.8068  26.5646 0041592 208.6489 151.2352 14.23068069355743
0 SL-16 DEB
1 22398U 92093CP  19099.10819976  .00000113  00000-0  95510-4 0  9995
2 22398  70.9555 341.2250 0116149 281.6712  77.1389 14.04155268340304
0 SL-16 DEB
1 22400U 92093CR  19098.77170523 +.00000025 +00000-0 +52392-4 0  9992
2 22400 071.2420 351.2063 0160540 236.0241 181.2997 13.87159967328668
0 SL-16 DEB
1 22403U 92093CU  19098.86277801 +.00000178 +00000-0 +13871-3 0  9999
2 22403 070.8914 262.6278 0083117 035.8349 078.8450 14.03563007340623
0 SL-16 DEB
1 22404U 92093CV  19098.72644286 +.00000832 +00000-0 +11026-3 0  9997
2 22404 071.0517 204.7692 0084500 218.8008 258.0125 14.80904840377715
0 SL-16 DEB
1 22404U 92093CV  19099.39158125  .00000891  00000-0  11745-3 0  9996
2 22404  71.0517 203.2199 0084475 217.6954 204.0143 14.80906550398476
0 SL-16 DEB
1 22405U 92093CW  19098.73423294 +.00000015 +00000-0 +20191-4 0  9990
2 22405 071.0362 233.5605 0124592 095.9735 265.5617 14.40006566356276
0 SL-16 DEB
1 22406U 92093CX  19098.97447563 +.00000054 +00000-0 +82835-4 0  9998
2 22406 070.7533 071.1638 0175909 348.2295 066.4415 13.81631675320867
0 SL-16 DEB
1 22406U 92093CX  19099.35614279  .00000060  00000-0  88561-4 0  9990
2 22406  70.7535  70.3958 0175934 347.6997 164.8022 13.81631765321177
0 SL-16 DEB
1 22408U 92093CZ  19098.60840267 +.00000513 +00000-0 +32064-3 0  9996
2 22408 071.0914 169.0907 0126461 077.2027 036.0828 14.05357983338418
0 SL-16 DEB
1 22409U 92093DA  19098.89526987 +.00000048 +00000-0 +22781-4 0  9997
2 22409 071.1320 270.1321 0127691 348.5132 122.8365 14.55527673366109
0 SL-16 DEB
1 22409U 92093DA  19098.89526987  .00000048  00000-0  22781-4 0  9997
2 22409  71.1320 270.1321 0127691 348.5132 122.8365 14.55527673386808
0 SL-16 DEB
1 22410U 92093DB  19098.92229014  .00000031  00000-0  53220-4 0  9998
2 22410  71.0849 274.5622 0110870 304.9619 167.5535 13.95936808335518
0 SL-16 DEB
1 22410U 92093DB  19098.92229014 +.00000031 +00000-0 +53220-4 0  9998
2 22410 071.0849 274.5622 0110870 304.9619 167.5535 13.95936808335192
0 SL-16 DEB
1 22415U 92093DG  19098.46735704 +.00000051 +00000-0 +58218-4 0  9994
2 22415 071.1146 116.9308 0126183 325.8933 033.4121 14.03218339340283
0 SL-16 DEB
1 22416U 92093DH  19098.66010743 +.00000128 +00000-0 +10513-3 0  9996
2 22416 070.9599 187.2453 0081662 304.9622 126.8446 14.05305733346549
0 SL-16 DEB
1 22417U 92093DJ  19098.93357176 -.00000001 +00000-0 +29661-4 0  9997
2 22417 071.1838 301.2584 0085007 085.5757 020.4347 13.97099517338786
0 SL-16 DEB
1 22418U 92093DK  19099.84689887  .00000083  00000-0  79418-4 0  9990
2 22418  71.1263 262.9838 0130255  62.7633  58.4269 14.00709279338175
0 SL-16 DEB
1 22419U 92093DL  19098.92272546 +.00000033 +00000-0 +54530-4 0  9992
2 22419 071.1796 054.6055 0107431 176.5763 183.6110 13.94566243334819
0 SL-16 DEB
1 22419U 92093DL  19099.20964055  .00000043  00000-0  61735-4 0  9993
2 22419  71.1797  54.0282 0107415 176.1456 184.0510 13.94566305335171
0 SL-16 DEB
1 22420U 92093DM  19099.46852021  .00000765  00000-0  11433-3 0  9992
2 22420  70.9874 244.0610 0068441  56.3295 359.6191 14.76848428397204
0 SL-16 DEB
1 22420U 92093DM  19098.80157139 +.00000716 +00000-0 +10767-3 0  9992
2 22420 070.9874 245.6097 0068430 057.4845 053.6471 14.76846983376552
0 SL-16 DEB
1 22421U 92093DN  19098.63073920 -.00000150 +00000-0 -56421-4 0  9991
2 22421 071.0351 187.2948 0097043 323.5120 148.3416 14.09190789346871
0 SL-16 DEB
1 22422U 92093DP  19098.91639396 +.00000096 +00000-0 +93749-4 0  9999
2 22422 071.1851 314.3871 0092526 084.2027 019.7028 13.98591917337015
0 SL-16 DEB
1 22422U 92093DP  19099.07110463  .00000093  00000-0  91729-4 0  9999
2 22422  71.1850 314.0738 0092524  83.9575  78.6717 13.98591950337314
0 SL-16 DEB
1 22423U 92093DQ  19099.19881431 -.00000022  00000-0  15452-4 0  9995
2 22423  71.2770  95.6277 0101307 313.9854  45.2938 13.95052566335677
0 SL-16 DEB
1 22423U 92093DQ  19098.41007874 -.00000031 +00000-0 +93223-5 0  9993
2 22423 071.2769 097.2079 0101276 315.1624 044.1338 13.95052508335282
0 SL-16 DEB
1 22425U 92093DS  19098.46359993 +.00000050 +00000-0 +67904-4 0  9998
2 22425 071.1745 092.5315 0115229 211.2668 311.4742 13.93471605332394
0 SL-16 DEB
1 22425U 92093DS  19099.24093566  .00000045  00000-0  64624-4 0  9996
2 22425  71.1746  90.9699 0115187 210.1151 250.9664 13.93471746332802
0 SL-16 DEB
1 22426U 92093DT  19099.21324028  .00000288  00000-0  14520-3 0  9992
2 22426  71.3549   9.7895 0136621  93.5283  27.4837 14.18939012350124
0 SL-16 DEB
1 22426U 92093DT  19098.92292413 +.00000293 +00000-0 +14763-3 0  9996
2 22426 071.3549 010.3922 0136611 093.9972 344.4891 14.18938735349818
0 SL-16 DEB
1 22430U 92093DX  19098.44539924 +.00000017 +00000-0 +42347-4 0  9993
2 22430 071.2334 100.5010 0114525 049.5051 100.1057 13.94700358334107
0 SL-16 DEB
1 22430U 92093DX  19099.14793903  .00000028  00000-0  50457-4 0  9993
2 22430  71.2335  99.0911 0114565  48.4321  27.5159 13.94700486334468
0 SL-16 DEB
1 22432U 92093DZ  19098.96188472 +.00000159 +00000-0 +12876-3 0  9990
2 22432 070.8348 306.4966 0107045 231.2479 246.6337 14.02197670337296
0 SL-16 DEB
1 22435U 92093EC  19098.82909420 +.00001030 +00000-0 +32179-3 0  9999
2 22435 071.3390 239.6403 0077303 038.6745 078.8647 14.41348394354060
0 SL-16 DEB
1 22436U 92093ED  19098.66070667 +.00000477 +00000-0 +11577-3 0  9997
2 22436 071.5138 208.9233 0060575 307.4534 168.7802 14.56796953381076
0 SL-16 DEB
1 22436U 92093ED  19099.20239332  .00000492  00000-0  11900-3 0  9991
2 22436  71.5138 207.7376 0060606 306.5399 129.6211 14.56797621381450
0 SL-16 DEB
1 22437U 92093EE  19099.32515165  .00000271  00000-0  97989-4 0  9993
2 22437  71.3361  64.9540 0043915 226.5722 133.1759 14.41018530369809
0 SL-16 DEB
1 22437U 92093EE  19098.28388848 +.00000258 +00000-0 +94227-4 0  9990
2 22437 071.3360 067.1968 0043998 228.2358 131.5017 14.41017824369389
0 SL-16 DEB
1 22438U 92093EF  19098.72401073 +.00004771 +00000-0 +60200-3 0  9993
2 22438 071.3289 073.6465 0032075 000.3536 058.6710 14.82092830368962
0 SL-16 DEB
1 22438U 92093EF  19098.99338324  .00004797  00000-0  60520-3 0  9993
2 22438  71.3289  73.0268 0032087 359.9166  55.8835 14.82095748369332
0 SL-16 DEB
1 22441U 92093EJ  19099.50395258 -.00000225  00000-0 -11422-3 0  9995
2 22441  71.1948 221.2182 0086153 321.5917 110.2226 14.02080023341916
0 SL-16 DEB
1 22441U 92093EJ  19098.79980437 -.00000220 +00000-0 -11082-3 0  9991
2 22441 071.1947 222.6514 0086114 322.6714 156.0342 14.02080329341773
0 SL-16 DEB
1 22442U 92093EK  19098.80507857 +.00000741 +00000-0 +32862-3 0  9990
2 22442 071.1080 344.2773 0140404 221.0322 138.0177 14.21131796344012
0 SL-16 DEB
1 22442U 92093EK  19099.08663181  .00000757  00000-0  33529-3 0  9992
2 22442  71.1079 343.6831 0140383 220.5929 138.4666 14.21132275344347
0 SL-16 DEB
1 22443U 92093EL  19099.42844506  .00001193  00000-0  41886-3 0  9993
2 22443  71.0988  92.0590 0074286 177.4911 304.6476 14.35446125351433
0 SL-16 DEB
1 22443U 92093EL  19098.86305292 +.00001171 +00000-0 +41140-3 0  9993
2 22443 071.0987 093.2808 0074340 178.4009 262.9139 14.35444597351025
0 SL-16 DEB
1 22444U 92093EM  19098.73278060 +.00000040 +00000-0 +49947-4 0  9990
2 22444 071.3211 221.9550 0079567 012.6241 098.5247 14.05901766343034
0 SL-16 DEB
1 22444U 92093EM  19099.01908771  .00000065  00000-0  64976-4 0  9997
2 22444  71.3212 221.3725 0079597  12.1770 107.5977 14.05901866343399
0 SL-16 DEB
1 22445U 92093EN  19098.87259293 +.00000034 +00000-0 +42478-4 0  9998
2 22445 071.2705 023.0984 0066928 334.4780 025.3042 14.11732226347411
0 SL-16 DEB
1 22445U 92093EN  19099.22687504  .00000050  00000-0  51205-4 0  9994
2 22445  71.2705  22.3684 0066950 333.9398  25.8359 14.11732351347745
0 NAVSTAR 30 (USA 88)
1 22446U 93007A   19099.72832352 -.00000052  00000-0  00000+0 0  9994
2 22446  55.2603 336.6865 0022887 351.3988 297.2202  1.88093440184668
0 NAVSTAR 30 (USA 88)
1 22446U 93007A   19096.01245368 -.00000053  00000-0  00000+0 0  9999
2 22446  55.2621 336.8169 0022968 351.0898 301.3139  1.88093565184590
0 SL-16 DEB
1 22451U 92093EQ  19098.92327535 -.00000004 +00000-0 +27694-4 0  9997
2 22451 071.1403 019.5737 0130317 133.1428 300.1332 13.93480044333750
0 SL-16 DEB
1 22453U 92093ES  19098.94788712 +.00000108 +00000-0 +11965-3 0  9996
2 22453 070.8060 051.6073 0175503 214.0074 205.1567 13.85489379323056
0 SL-16 DEB
1 22454U 92093ET  19098.93365390 +.00000053 +00000-0 +65862-4 0  9994
2 22454 070.9193 039.2163 0104687 061.6885 299.4742 13.98298086337703
0 SL-16 DEB
1 22454U 92093ET  19099.86362331  .00000058  00000-0  69229-4 0  9995
2 22454  70.9195  37.3086 0104717  60.3008 300.8479 13.98298264337820
